CCSDS_OMM_VERS = 2.0
CREATION_DATE  = 
ORIGINATOR     = 

OBJECT_NAME    = STARLINK-35139
OBJECT_ID      = 2025-257A
CENTER_NAME    = EARTH
REF_FRAME      = TEME
TIME_SYSTEM    = UTC
MEAN_ELEMENT_THEORY = SGP/SGP4

EPOCH          = 2025-12-08T16:00:03.000096
MEAN_MOTION    = 15.39473366
ECCENTRICITY   = .0000962
INCLINATION    = 53.1597
RA_OF_ASC_NODE = 283.8471
ARG_OF_PERICENTER = 68.0501
MEAN_ANOMALY   = 185.7372

EPHEMERIS_TYPE = 0
CLASSIFICATION_TYPE = U
NORAD_CAT_ID   = 66380
ELEMENT_SET_NO = 999
REV_AT_EPOCH   = 578
BSTAR          = .2366E-2
MEAN_MOTION_DOT = .94965E-3
MEAN_MOTION_DDOT = 0

CCSDS_OMM_VERS = 2.0
CREATION_DATE  = 
ORIGINATOR     = 

OBJECT_NAME    = STARLINK-35158
OBJECT_ID      = 2025-257B
CENTER_NAME    = EARTH
REF_FRAME      = TEME
TIME_SYSTEM    = UTC
MEAN_ELEMENT_THEORY = SGP/SGP4

EPOCH          = 2025-12-08T20:00:01.999008
MEAN_MOTION    = 15.39637815
ECCENTRICITY   = .0001677
INCLINATION    = 53.1595
RA_OF_ASC_NODE = 283.0582
ARG_OF_PERICENTER = 116.1763
MEAN_ANOMALY   = 343.4192

EPHEMERIS_TYPE = 0
CLASSIFICATION_TYPE = U
NORAD_CAT_ID   = 66381
ELEMENT_SET_NO = 999
REV_AT_EPOCH   = 586
BSTAR          = .27365E-2
MEAN_MOTION_DOT = .110727E-2
MEAN_MOTION_DDOT = 0

CCSDS_OMM_VERS = 2.0
CREATION_DATE  = 
ORIGINATOR     = 

OBJECT_NAME    = STARLINK-35639
OBJECT_ID      = 2025-257C
CENTER_NAME    = EARTH
REF_FRAME      = TEME
TIME_SYSTEM    = UTC
MEAN_ELEMENT_THEORY = SGP/SGP4

EPOCH          = 2025-12-08T13:14:03.643584
MEAN_MOTION    = 15.39624157
ECCENTRICITY   = .0002223
INCLINATION    = 53.1597
RA_OF_ASC_NODE = 284.3387
ARG_OF_PERICENTER = 86.4104
MEAN_ANOMALY   = 273.7155

EPHEMERIS_TYPE = 0
CLASSIFICATION_TYPE = U
NORAD_CAT_ID   = 66382
ELEMENT_SET_NO = 999
REV_AT_EPOCH   = 572
BSTAR          = .20006E-2
MEAN_MOTION_DOT = .80485E-3
MEAN_MOTION_DDOT = 0

CCSDS_OMM_VERS = 2.0
CREATION_DATE  = 
ORIGINATOR     = 

OBJECT_NAME    = STARLINK-35690
OBJECT_ID      = 2025-257D
CENTER_NAME    = EARTH
REF_FRAME      = TEME
TIME_SYSTEM    = UTC
MEAN_ELEMENT_THEORY = SGP/SGP4

EPOCH          = 2025-12-08T13:07:21.931104
MEAN_MOTION    = 15.39636026
ECCENTRICITY   = .0001129
INCLINATION    = 53.1603
RA_OF_ASC_NODE = 284.3099
ARG_OF_PERICENTER = 82.4956
MEAN_ANOMALY   = 277.6177

EPHEMERIS_TYPE = 0
CLASSIFICATION_TYPE = U
NORAD_CAT_ID   = 66383
ELEMENT_SET_NO = 999
REV_AT_EPOCH   = 572
BSTAR          = .21346E-2
MEAN_MOTION_DOT = .85998E-3
MEAN_MOTION_DDOT = 0

CCSDS_OMM_VERS = 2.0
CREATION_DATE  = 
ORIGINATOR     = 

OBJECT_NAME    = STARLINK-35662
OBJECT_ID      = 2025-257E
CENTER_NAME    = EARTH
REF_FRAME      = TEME
TIME_SYSTEM    = UTC
MEAN_ELEMENT_THEORY = SGP/SGP4

EPOCH          = 2025-12-08T13:06:53.895168
MEAN_MOTION    = 15.39626376
ECCENTRICITY   = .0002419
INCLINATION    = 53.1600
RA_OF_ASC_NODE = 284.3060
ARG_OF_PERICENTER = 81.3134
MEAN_ANOMALY   = 278.8144

EPHEMERIS_TYPE = 0
CLASSIFICATION_TYPE = U
NORAD_CAT_ID   = 66384
ELEMENT_SET_NO = 999
REV_AT_EPOCH   = 572
BSTAR          = .16794E-2
MEAN_MOTION_DOT = .67388E-3
MEAN_MOTION_DDOT = 0

CCSDS_OMM_VERS = 2.0
CREATION_DATE  = 
ORIGINATOR     = 

OBJECT_NAME    = STARLINK-35659
OBJECT_ID      = 2025-257F
CENTER_NAME    = EARTH
REF_FRAME      = TEME
TIME_SYSTEM    = UTC
MEAN_ELEMENT_THEORY = SGP/SGP4

EPOCH          = 2025-12-08T13:13:35.609376
MEAN_MOTION    = 15.39664340
ECCENTRICITY   = .0001071
INCLINATION    = 53.1587
RA_OF_ASC_NODE = 284.3387
ARG_OF_PERICENTER = 103.1034
MEAN_ANOMALY   = 257.0090

EPHEMERIS_TYPE = 0
CLASSIFICATION_TYPE = U
NORAD_CAT_ID   = 66385
ELEMENT_SET_NO = 999
REV_AT_EPOCH   = 572
BSTAR          = .16812E-2
MEAN_MOTION_DOT = .67545E-3
MEAN_MOTION_DDOT = 0

CCSDS_OMM_VERS = 2.0
CREATION_DATE  = 
ORIGINATOR     = 

OBJECT_NAME    = STARLINK-35651
OBJECT_ID      = 2025-257G
CENTER_NAME    = EARTH
REF_FRAME      = TEME
TIME_SYSTEM    = UTC
MEAN_ELEMENT_THEORY = SGP/SGP4

EPOCH          = 2025-12-08T20:48:03.451968
MEAN_MOTION    = 15.39659795
ECCENTRICITY   = .0000941
INCLINATION    = 53.1600
RA_OF_ASC_NODE = 282.7505
ARG_OF_PERICENTER = 112.1585
MEAN_ANOMALY   = 247.9520

EPHEMERIS_TYPE = 0
CLASSIFICATION_TYPE = U
NORAD_CAT_ID   = 66386
ELEMENT_SET_NO = 999
REV_AT_EPOCH   = 577
BSTAR          = .20454E-2
MEAN_MOTION_DOT = .82413E-3
MEAN_MOTION_DDOT = 0

CCSDS_OMM_VERS = 2.0
CREATION_DATE  = 
ORIGINATOR     = 

OBJECT_NAME    = STARLINK-35661
OBJECT_ID      = 2025-257H
CENTER_NAME    = EARTH
REF_FRAME      = TEME
TIME_SYSTEM    = UTC
MEAN_ELEMENT_THEORY = SGP/SGP4

EPOCH          = 2025-12-08T13:00:12.232800
MEAN_MOTION    = 15.39635582
ECCENTRICITY   = .0001289
INCLINATION    = 53.1587
RA_OF_ASC_NODE = 284.2774
ARG_OF_PERICENTER = 83.7946
MEAN_ANOMALY   = 276.3206

EPHEMERIS_TYPE = 0
CLASSIFICATION_TYPE = U
NORAD_CAT_ID   = 66387
ELEMENT_SET_NO = 999
REV_AT_EPOCH   = 572
BSTAR          = .12627E-2
MEAN_MOTION_DOT = .50466E-3
MEAN_MOTION_DDOT = 0

CCSDS_OMM_VERS = 2.0
CREATION_DATE  = 
ORIGINATOR     = 

OBJECT_NAME    = STARLINK-35647
OBJECT_ID      = 2025-257J
CENTER_NAME    = EARTH
REF_FRAME      = TEME
TIME_SYSTEM    = UTC
MEAN_ELEMENT_THEORY = SGP/SGP4

EPOCH          = 2025-12-08T20:41:22.417728
MEAN_MOTION    = 15.39678117
ECCENTRICITY   = .0002221
INCLINATION    = 53.1598
RA_OF_ASC_NODE = 282.7222
ARG_OF_PERICENTER = 86.8465
MEAN_ANOMALY   = 273.2794

EPHEMERIS_TYPE = 0
CLASSIFICATION_TYPE = U
NORAD_CAT_ID   = 66388
ELEMENT_SET_NO = 999
REV_AT_EPOCH   = 577
BSTAR          = .21945E-2
MEAN_MOTION_DOT = .88578E-3
MEAN_MOTION_DDOT = 0

CCSDS_OMM_VERS = 2.0
CREATION_DATE  = 
ORIGINATOR     = 

OBJECT_NAME    = STARLINK-35694
OBJECT_ID      = 2025-257K
CENTER_NAME    = EARTH
REF_FRAME      = TEME
TIME_SYSTEM    = UTC
MEAN_ELEMENT_THEORY = SGP/SGP4

EPOCH          = 2025-12-08T20:00:01.999008
MEAN_MOTION    = 15.39566165
ECCENTRICITY   = .0001055
INCLINATION    = 53.1591
RA_OF_ASC_NODE = 282.7990
ARG_OF_PERICENTER = 94.6727
MEAN_ANOMALY   = 133.8423

EPHEMERIS_TYPE = 0
CLASSIFICATION_TYPE = U
NORAD_CAT_ID   = 66389
ELEMENT_SET_NO = 999
REV_AT_EPOCH   = 586
BSTAR          = .17091E-2
MEAN_MOTION_DOT = .68458E-3
MEAN_MOTION_DDOT = 0

CCSDS_OMM_VERS = 2.0
CREATION_DATE  = 
ORIGINATOR     = 

OBJECT_NAME    = STARLINK-35665
OBJECT_ID      = 2025-257L
CENTER_NAME    = EARTH
REF_FRAME      = TEME
TIME_SYSTEM    = UTC
MEAN_ELEMENT_THEORY = SGP/SGP4

EPOCH          = 2025-12-08T19:45:46.533600
MEAN_MOTION    = 15.49358923
ECCENTRICITY   = .0002898
INCLINATION    = 53.1601
RA_OF_ASC_NODE = 282.4733
ARG_OF_PERICENTER = 82.5198
MEAN_ANOMALY   = 277.6140

EPHEMERIS_TYPE = 0
CLASSIFICATION_TYPE = U
NORAD_CAT_ID   = 66390
ELEMENT_SET_NO = 999
REV_AT_EPOCH   = 587
BSTAR          = .14953E-2
MEAN_MOTION_DOT = .83762E-3
MEAN_MOTION_DDOT = 0

CCSDS_OMM_VERS = 2.0
CREATION_DATE  = 
ORIGINATOR     = 

OBJECT_NAME    = STARLINK-35656
OBJECT_ID      = 2025-257M
CENTER_NAME    = EARTH
REF_FRAME      = TEME
TIME_SYSTEM    = UTC
MEAN_ELEMENT_THEORY = SGP/SGP4

EPOCH          = 2025-12-08T20:34:41.049120
MEAN_MOTION    = 15.39662170
ECCENTRICITY   = .0001382
INCLINATION    = 53.1594
RA_OF_ASC_NODE = 282.6781
ARG_OF_PERICENTER = 96.5378
MEAN_ANOMALY   = 263.5784

EPHEMERIS_TYPE = 0
CLASSIFICATION_TYPE = U
NORAD_CAT_ID   = 66391
ELEMENT_SET_NO = 999
REV_AT_EPOCH   = 587
BSTAR          = .18106E-2
MEAN_MOTION_DOT = .7282E-3
MEAN_MOTION_DDOT = 0

