STARLINK-35139          
1 66380U 25257A   25342.66670139  .00094965  00000+0  23660-2 0  9999
2 66380  53.1597 283.8471 0000962  68.0501 185.7372 15.39473366  5785
STARLINK-35158          
1 66381U 25257B   25342.83335647  .00110727  00000+0  27365-2 0  9992
2 66381  53.1595 283.0582 0001677 116.1763 343.4192 15.39637815  5861
STARLINK-35639          
1 66382U 25257C   25342.55143106  .00080485  00000+0  20006-2 0  9991
2 66382  53.1597 284.3387 0002223  86.4104 273.7155 15.39624157  5721
STARLINK-35690          
1 66383U 25257D   25342.54678161  .00085998  00000+0  21346-2 0  9997
2 66383  53.1603 284.3099 0001129  82.4956 277.6177 15.39636026  5720
STARLINK-35662          
1 66384U 25257E   25342.54645712  .00067388  00000+0  16794-2 0  9998
2 66384  53.1600 284.3060 0002419  81.3134 278.8144 15.39626376  5729
STARLINK-35659          
1 66385U 25257F   25342.55110659  .00067545  00000+0  16812-2 0  9993
2 66385  53.1587 284.3387 0001071 103.1034 257.0090 15.39664340  5723
STARLINK-35651          
1 66386U 25257G   25342.86670662  .00082413  00000+0  20454-2 0  9991
2 66386  53.1600 282.7505 0000941 112.1585 247.9520 15.39659795  5779
STARLINK-35661          
1 66387U 25257H   25342.54180825  .00050466  00000+0  12627-2 0  9990
2 66387  53.1587 284.2774 0001289  83.7946 276.3206 15.39635582  5729
STARLINK-35647          
1 66388U 25257J   25342.86206502  .00088578  00000+0  21945-2 0  9995
2 66388  53.1598 282.7222 0002221  86.8465 273.2794 15.39678117  5774
STARLINK-35694          
1 66389U 25257K   25342.83335647  .00068458  00000+0  17091-2 0  9998
2 66389  53.1591 282.7990 0001055  94.6727 133.8423 15.39566165  5861
STARLINK-35665          
1 66390U 25257L   25342.82345525  .00083762  00000+0  14953-2 0  9994
2 66390  53.1601 282.4733 0002898  82.5198 277.6140 15.49358923  5877
STARLINK-35656          
1 66391U 25257M   25342.85741955  .00072820  00000+0  18106-2 0  9992
2 66391  53.1594 282.6781 0001382  96.5378 263.5784 15.39662170  5875
